ONEWEB-0709             
1 55172U 23004AJ  24304.24213251  .00000517  00000+0  14218-2 0  9992
2 55172  87.8892 139.6283 0001745  47.5144 312.6131 13.11415679 87895
ONEWEB-0710             
1 55173U 23004AK  24304.47169309  .00000042  00000+0  75451-4 0  9993
2 55173  87.9070 124.3644 0001399  90.5703 269.5589 13.17650867 89267
ONEWEB-0711             
1 55174U 23004AL  24303.98441376  .00000184  00000+0  48366-3 0  9997
2 55174  87.8894 139.6481 0000860 113.2840 246.8379 13.11417853 87821
ONEWEB-0713             
1 55175U 23004AM  24304.30826259  .00000681  00000+0  18859-2 0  9997
2 55175  87.8891 139.5921 0001244  90.9954 269.1317 13.11415794 87856
ONEWEB-0715             
1 55176U 23004AN  24304.30317218  .00000600  00000+0  16581-2 0  9999
2 55176  87.8892 139.5932 0001341  69.4212 290.7059 13.11416627 87899
ONEWEB-0716             
1 55177U 23004AP  24304.46494975 -.00000193  00000+0 -53139-3 0  9993
2 55177  87.9076 124.3603 0001728  91.7686 268.3643 13.17649061 89263
ONEWEB-0717             
1 55178U 23004AQ  24304.22024381 -.00000481  00000+0 -12716-2 0  9993
2 55178  87.9069 124.3710 0000759 103.1805 256.9411 13.17648619 89285
ONEWEB-0719             
1 55179U 23004AR  24304.45819765 -.00000090  00000+0 -26579-3 0  9996
2 55179  87.9070 124.3091 0001673  96.8200 263.3122 13.17648146 89267
ONEWEB-0530             
1 55796U 23029A   24304.55114893 -.00000130  00000+0 -35218-3 0  9994
2 55796  87.9299  32.7676 0001515 120.9318 239.1964 13.20770530 82658
ONEWEB-0534             
1 55797U 23029B   24304.53852946 -.00000091  00000+0 -25578-3 0  9995
2 55797  87.9299  32.7772 0001833 100.5247 259.6093 13.20770937 82655
ONEWEB-0556             
1 55798U 23029C   24304.54483560  .00000033  00000+0  49389-4 0  9990
2 55798  87.9299  32.7689 0002276 121.6204 238.5152 13.20773197 82655
ONEWEB-0562             
1 55799U 23029D   24304.53221449  .00000011  00000+0 -39546-5 0  9998
2 55799  87.9301  32.7630 0001886 134.3755 225.7533 13.20769970 82659
ONEWEB-0563             
1 55800U 23029E   24304.52591832  .00000073  00000+0  14818-3 0  9996
2 55800  87.9300  32.7789 0002053  97.8895 262.2471 13.20771558 82642
ONEWEB-0564             
1 55801U 23029F   24304.51959076 -.00000127  00000+0 -34521-3 0  9999
2 55801  87.9302  32.7668 0001621 115.6752 244.4549 13.20770332 82650
ONEWEB-0638             
1 55802U 23029G   24304.53257704  .00000040  00000+0  72368-4 0  9995
2 55802  87.9030  48.0068 0002131 113.4478 246.6876 13.14500772 81277
ONEWEB-0639             
1 55803U 23029H   24304.62829250 -.00002158  00000+0 -54243-2 0  9991
2 55803  87.9157  63.2121 0002639  82.1400 278.0033 13.19707699 80485
ONEWEB-0640             
1 55804U 23029J   24304.54210681 -.00000101  00000+0 -30610-3 0  9994
2 55804  87.9029  47.9979 0002485 108.1045 252.0356 13.14502653 81295
ONEWEB-0641             
1 55805U 23029K   24304.62351414  .00000078  00000+0  16172-3 0  9992
2 55805  87.9172  63.1909 0001778  90.0298 270.1038 13.19723866 80496
ONEWEB-0642             
1 55806U 23029L   24304.61877748  .00000188  00000+0  43842-3 0  9991
2 55806  87.9178  63.2199 0002309  75.0652 285.0736 13.19724903 80485
ONEWEB-0643             
1 55807U 23029M   24304.58809564  .00000212  00000+0  53799-3 0  9999
2 55807  87.9029  47.9679 0001858  68.4414 291.6913 13.14502983 81278
ONEWEB-0644             
1 55808U 23029N   24304.61404976  .00000054  00000+0  10195-3 0  9999
2 55808  87.9180  63.2196 0001944  81.5639 278.5714 13.19727217 80482
ONEWEB-0645             
1 55809U 23029P   24304.61007924 -.00000367  00000+0 -94979-3 0  9993
2 55809  87.9178  63.2201 0002120  93.3066 266.8309 13.19723983 80485
ONEWEB-0646             
1 55810U 23029Q   24304.56427716  .00000126  00000+0  28324-3 0  9996
2 55810  87.9175  63.2259 0001723  88.3055 271.8275 13.19723978 81154
ONEWEB-0648             
1 55811U 23029R   24304.32802194 -.00000076  00000+0 -23894-3 0  9991
2 55811  87.9027  47.9921 0002613  87.4214 272.7215 13.14502312 81248
ONEWEB-0649             
1 55812U 23029S   24304.60299044  .00000130  00000+0  29247-3 0  9994
2 55812  87.9174  63.2118 0002106  90.2386 269.8988 13.19723787 80508
ONEWEB-0650             
1 55813U 23029T   24304.59825637  .00000179  00000+0  41465-3 0  9995
2 55813  87.9178  63.2175 0001764  91.8654 268.2681 13.19723715 80470
ONEWEB-0652             
1 55814U 23029U   24304.53734562 -.00000017  00000+0 -81065-4 0  9990
2 55814  87.9032  47.9618 0001649 105.1497 254.9815 13.14501977 81243
ONEWEB-0653             
1 55815U 23029V   24304.52149287  .00000306  00000+0  79000-3 0  9998
2 55815  87.9033  47.9482 0001778 109.1832 250.9490 13.14502554 81274
ONEWEB-0654             
1 55816U 23029W   24304.59285389  .00000220  00000+0  55995-3 0  9992
2 55816  87.9029  47.9407 0001475 116.1568 243.9713 13.14502609 81300
ONEWEB-0656             
1 55817U 23029X   24304.51328234 -.00000169  00000+0 -44859-3 0  9993
2 55817  87.9302  32.7099 0001187 116.7039 243.4216 13.20771233 82653
ONEWEB-0657             
1 55818U 23029Y   24304.59351172  .00000148  00000+0  33751-3 0  9993
2 55818  87.9175  63.2233 0000806  85.2285 274.8940 13.19723910 80489
ONEWEB-0658             
1 55819U 23029Z   24304.58878132  .00000164  00000+0  37653-3 0  9996
2 55819  87.9173  63.1585 0001953  83.3365 276.7990 13.19724843 80492
ONEWEB-0660             
1 55820U 23029AA  24304.57064922  .00000010  00000+0 -78954-5 0  9993
2 55820  87.9028  47.9185 0002091 100.3052 259.8314 13.14502490 81283
ONEWEB-0661             
1 55821U 23029AB  24304.52942502  .00000174  00000+0  43386-3 0  9997
2 55821  87.9030  47.9948 0002140 103.6295 256.5073 13.14502603 81264
ONEWEB-0662             
1 55822U 23029AC  24304.33594920  .00000041  00000+0  76692-4 0  9994
2 55822  87.9030  48.0409 0002043  96.7010 263.4352 13.14502487 81287
ONEWEB-0663             
1 55823U 23029AD  24304.58334491  .00033666  00000+0  82442-1 0  9993
2 55823  87.9303  32.7549 0002226  98.0052 280.5898 13.20787684  5204
ONEWEB-0664             
1 55824U 23029AE  24304.27339705  .00000192  00000+0  43952-3 0  9996
2 55824  87.9299  32.8318 0002025 113.4862 246.6485 13.20773847 82613
ONEWEB-0665             
1 55825U 23029AF  24304.52625800  .00000137  00000+0  33595-3 0  9990
2 55825  87.9031  47.9704 0001949  96.6279 263.5073 13.14503030 81283
ONEWEB-0666             
1 55826U 23029AG  24304.49432911  .00000102  00000+0  21805-3 0  9999
2 55826  87.9298  32.7779 0001373 109.4183 250.7098 13.20774862 82658
ONEWEB-0667             
1 55827U 23029AH  24304.48803481  .00000150  00000+0  33607-3 0  9999
2 55827  87.9298  32.7122 0001976 103.6925 256.4429 13.20770619 82646
ONEWEB-0669             
1 55828U 23029AJ  24304.48329135  .00000181  00000+0  41432-3 0  9998
2 55828  87.9297  32.7499 0001577 128.4012 231.7263 13.20770085 82641
ONEWEB-0670             
1 55829U 23029AK  24304.58015312 -.00000073  00000+0 -23144-3 0  9991
2 55829  87.9032  47.9700 0002041 107.7203 252.4150 13.14502891 81310
ONEWEB-0671             
1 55830U 23029AL  24304.58403258 -.00000039  00000+0 -12875-3 0  9994
2 55830  87.9174  63.2217 0001908 104.2512 255.8833 13.19725831 80476
ONEWEB-0672             
1 55831U 23029AM  24304.47855235  .00000061  00000+0  11877-3 0  9993
2 55831  87.9300  32.7356 0001376 104.5865 255.5421 13.20771904 82641
ONEWEB-0673             
1 55832U 23029AN  24304.63614842  .00000145  00000+0  32920-3 0  9994
2 55832  87.9173  63.1769 0001779  89.3146 270.8190 13.19724794 80481
ONEWEB-0674             
1 55833U 23029AP  24304.54844339 -.00000139  00000+0 -40922-3 0  9997
2 55833  87.9026  47.9743 0002233 108.9227 251.2145 13.14501607 81299
ONEWEB-0675             
1 55834U 23029AQ  24304.57611721 -.00000157  00000+0 -42550-3 0  9997
2 55834  87.9176  63.2272 0001324  87.9917 272.1368 13.19726061 80494
ONEWEB-0720             
1 55835U 23029AR  24304.56824234  .00000269  00000+0  64043-3 0  9995
2 55835  87.9175  63.2277 0002044  91.7934 268.3433 13.19724607 80417
ONEWEB-0537             
1 56046U 23043A   24304.36639908  .00000056  00000+0  11234-3 0  9994
2 56046  87.9119 347.2560 0001599  93.5797 266.5517 13.16594080 80691
ONEWEB-0538             
1 56047U 23043B   24304.36006626  .00000055  00000+0  10918-3 0  9997
2 56047  87.9121 347.2781 0001820  86.8915 273.2424 13.16594731 80701
ONEWEB-0546             
1 56048U 23043C   24304.57539322  .00000241  00000+0  59809-3 0  9994
2 56048  87.9121 347.2018 0001028 104.4745 255.6500 13.16594179 80720
ONEWEB-0547             
1 56049U 23043D   24304.42705808 -.00000373  00000+0 -93369-3 0  9990
2 56049  87.9346   2.4478 0001777  91.7467 268.3870 13.21825273 79659
ONEWEB-0548             
1 56050U 23043E   24304.37273314 -.00000027  00000+0 -10328-3 0  9998
2 56050  87.9121 347.2839 0002187 109.7149 250.4218 13.16594611 80693
ONEWEB-0549             
1 56051U 23043F   24304.41839220  .00000121  00000+0  26099-3 0  9993
2 56051  87.9344   2.4500 0001825  82.6969 277.4372 13.21828333 79654
ONEWEB-0550             
1 56052U 23043G   24304.40577622  .00001096  00000+0  26232-2 0  9998
2 56052  87.9337   2.4555 0002006 105.0994 255.0362 13.21823884 79654
ONEWEB-0551             
1 56053U 23043H   24304.46298577 -.00000202  00000+0 -57038-3 0  9993
2 56053  87.9122  17.6141 0001925  93.2117 266.9233 13.15548139 78208
ONEWEB-0552             
1 56054U 23043J   24304.39948453  .00000073  00000+0  14536-3 0  9991
2 56054  87.9342   2.4664 0002132  98.4129 261.7246 13.21825938 79655
ONEWEB-0553             
1 56055U 23043K   24304.35373519  .00000254  00000+0  63111-3 0  9997
2 56055  87.9122 347.2761 0001510  96.9970 263.1333 13.16594240 80700
ONEWEB-0554             
1 56056U 23043L   24304.41706553  .00000151  00000+0  36145-3 0  9996
2 56056  87.9124 347.2885 0002323 108.1622 251.9762 13.16592744 80699
